{"type": "FeatureCollection", "features": [ {"type": "Feature", "properties": {"norad_id": 30013, "name": "FENGYUN 1C DEB", "group": "fengyun-1c-debris", "lat": -32.268560802291276, "lon": 173.51665248133534, "alt_km": 1024.8168514325453, "timestamp": "2025-12-06T09:34:17.186924+00:00", "meta": {"OBJECT_NAME": "FENGYUN 1C DEB", "OBJECT_ID": "1999-025MN", "EPOCH": "2025-12-06T00:02:58.745184", "MEAN_MOTION": 13.87819113, "ECCENTRICITY": 0.01283966, "INCLINATION": 99.5804, "RA_OF_ASC_NODE": 359.2313, "ARG_OF_PERICENTER": 61.8798, "MEAN_ANOMALY": 328.9768, "EPHEMERIS_TYPE": 0, "CLASSIFICATION_TYPE": "U", "NORAD_CAT_ID": 30013, "ELEMENT_SET_NO": 999, "REV_AT_EPOCH": 95588, "BSTAR": 0.00040166665, "MEAN_MOTION_DOT": 4.63e-06, "MEAN_MOTION_DDOT": 0}, "tle": {"line1": "1 30013U 99025MN  25340.00206881  .00000463  00000+0  40167-3 0  9994", "line2": "2 30013  99.5804 359.2313 0128396  61.8798 328.9768 13.87819113955888"}}, "geometry": {"type": "Point", "coordinates": [173.51665248133534, -32.268560802291276]}}, {"type": "Feature", "properties": {"norad_id": 30015, "name": "FENGYUN 1C DEB", "group": "fengyun-1c-debris", "lat": 12.780450950551979, "lon": 165.00779593115314, "alt_km": 765.116560360786, "timestamp": "2025-12-06T09:34:17.186934+00:00", "meta": {"OBJECT_NAME": "FENGYUN 1C DEB", "OBJECT_ID": "1999-025MQ", "EPOCH": "2025-12-05T23:01:24.626784", "MEAN_MOTION": 14.30768112, "ECCENTRICITY": 0.00383541, "INCLINATION": 99.2279, "RA_OF_ASC_NODE": 342.4283, "ARG_OF_PERICENTER": 144.2665, "MEAN_ANOMALY": 280.0112, "EPHEMERIS_TYPE": 0, "CLASSIFICATION_TYPE": "U", "NORAD_CAT_ID": 30015, "ELEMENT_SET_NO": 999, "REV_AT_EPOCH": 98076, "BSTAR": 0.00105404, "MEAN_MOTION_DOT": 2.735e-05, "MEAN_MOTION_DDOT": 0}, "tle": {"line1": "1 30015U 99025MQ  25339.95931281  .00002735  00000+0  10540-2 0  9992", "line2": "2 30015  99.2279 342.4283 0038354 144.2665 280.0112 14.30768112980763"}}, "geometry": {"type": "Point", "coordinates": [165.00779593115314, 12.780450950551979]}}, {"type": "Feature", "properties": {"norad_id": 30016, "name": "FENGYUN 1C DEB", "group": "fengyun-1c-debris", "lat": -68.84553163332582, "lon": 15.598233637833577, "alt_km": 663.8938792924673, "timestamp": "2025-12-06T09:34:17.186944+00:00", "meta": {"OBJECT_NAME": "FENGYUN 1C DEB", "OBJECT_ID": "1999-025MR", "EPOCH": "2025-12-05T11:50:57.856416", "MEAN_MOTION": 14.78209811, "ECCENTRICITY": 0.00474337, "INCLINATION": 98.9048, "RA_OF_ASC_NODE": 350.6962, "ARG_OF_PERICENTER": 63.3298, "MEAN_ANOMALY": 92.7066, "EPHEMERIS_TYPE": 0, "CLASSIFICATION_TYPE": "U", "NORAD_CAT_ID": 30016, "ELEMENT_SET_NO": 999, "REV_AT_EPOCH": 99346, "BSTAR": 0.0032028225, "MEAN_MOTION_DOT": 0.00023676, "MEAN_MOTION_DDOT": 0}, "tle": {"line1": "1 30016U 99025MR  25339.49372519  .00023676  00000+0  32028-2 0  9997", "line2": "2 30016  98.9048 350.6962 0047433  63.3298  92.7066 14.78209811993465"}}, "geometry": {"type": "Point", "coordinates": [15.598233637833577, -68.84553163332582]}}, {"type": "Feature", "properties": {"norad_id": 30017, "name": "FENGYUN 1C DEB", "group": "fengyun-1c-debris", "lat": 77.30440266463626, "lon": -112.21667375144924, "alt_km": 693.2604167638137, "timestamp": "2025-12-06T09:34:17.186954+00:00", "meta": {"OBJECT_NAME": "FENGYUN 1C DEB", "OBJECT_ID": "1999-025MS", "EPOCH": "2025-12-05T16:40:10.778880", "MEAN_MOTION": 14.61170318, "ECCENTRICITY": 0.02171167, "INCLINATION": 98.7554, "RA_OF_ASC_NODE": 23.8732, "ARG_OF_PERICENTER": 196.7841, "MEAN_ANOMALY": 162.6096, "EPHEMERIS_TYPE": 0, "CLASSIFICATION_TYPE": "U", "NORAD_CAT_ID": 30017, "ELEMENT_SET_NO": 999, "REV_AT_EPOCH": 341, "BSTAR": 0.00033352164, "MEAN_MOTION_DOT": 2.229e-05, "MEAN_MOTION_DDOT": 0}, "tle": {"line1": "1 30017U 99025MS  25339.69456920  .00002229  00000+0  33352-3 0  9992", "line2": "2 30017  98.7554  23.8732 0217116 196.7841 162.6096 14.61170318  3410"}}, "geometry": {"type": "Point", "coordinates": [-112.21667375144924, 77.30440266463626]}}, {"type": "Feature", "properties": {"norad_id": 30018, "name": "FENGYUN 1C DEB", "group": "fengyun-1c-debris", "lat": -42.344322480664694, "lon": -125.53280960778298, "alt_km": 576.6044053547357, "timestamp": "2025-12-06T09:34:17.186964+00:00", "meta": {"OBJECT_NAME": "FENGYUN 1C DEB", "OBJECT_ID": "1999-025MT", "EPOCH": "2025-12-05T23:34:56.594208", "MEAN_MOTION": 14.73054218, "ECCENTRICITY": 0.01166398, "INCLINATION": 98.757, "RA_OF_ASC_NODE": 62.094, "ARG_OF_PERICENTER": 216.6625, "MEAN_ANOMALY": 320.1694, "EPHEMERIS_TYPE": 0, "CLASSIFICATION_TYPE": "U", "NORAD_CAT_ID": 30018, "ELEMENT_SET_NO": 999, "REV_AT_EPOCH": 337, "BSTAR": 0.0012964469, "MEAN_MOTION_DOT": 9.234e-05, "MEAN_MOTION_DDOT": 0}, "tle": {"line1": "1 30018U 99025MT  25339.98259947  .00009234  00000+0  12964-2 0  9993", "line2": "2 30018  98.7570  62.0940 0116639 216.6625 320.1694 14.73054218  3378"}}, "geometry": {"type": "Point", "coordinates": [-125.53280960778298, -42.344322480664694]}}, {"type": "Feature", "properties": {"norad_id": 30020, "name": "FENGYUN 1C DEB", "group": "fengyun-1c-debris", "lat": 79.43652769813406, "lon": -72.25856454541716, "alt_km": 737.7475711646784, "timestamp": "2025-12-06T09:34:17.186974+00:00", "meta": {"OBJECT_NAME": "FENGYUN 1C DEB", "OBJECT_ID": "1999-025MV", "EPOCH": "2025-12-05T23:03:48.189024", "MEAN_MOTION": 14.04445271, "ECCENTRICITY": 0.01840713, "INCLINATION": 98.8466, "RA_OF_ASC_NODE": 343.9438, "ARG_OF_PERICENTER": 89.3761, "MEAN_ANOMALY": 302.5154, "EPHEMERIS_TYPE": 0, "CLASSIFICATION_TYPE": "U", "NORAD_CAT_ID": 30020, "ELEMENT_SET_NO": 999, "REV_AT_EPOCH": 96563, "BSTAR": 0.00083225082, "MEAN_MOTION_DOT": 1.502e-05, "MEAN_MOTION_DDOT": 0}, "tle": {"line1": "1 30020U 99025MV  25339.96097441  .00001502  00000+0  83225-3 0  9992", "line2": "2 30020  98.8466 343.9438 0184071  89.3761 302.5154 14.04445271965638"}}, "geometry": {"type": "Point", "coordinates": [-72.25856454541716, 79.43652769813406]}}, {"type": "Feature", "properties": {"norad_id": 30021, "name": "FENGYUN 1C DEB", "group": "fengyun-1c-debris", "lat": -54.802408508779195, "lon": 139.35454860169705, "alt_km": 865.1206613069926, "timestamp": "2025-12-06T09:34:17.186985+00:00", "meta": {"OBJECT_NAME": "FENGYUN 1C DEB", "OBJECT_ID": "1999-025MW", "EPOCH": "2025-12-05T22:20:35.708640", "MEAN_MOTION": 14.04885473, "ECCENTRICITY": 0.0072124, "INCLINATION": 98.8347, "RA_OF_ASC_NODE": 331.637, "ARG_OF_PERICENTER": 306.3784, "MEAN_ANOMALY": 85.2749, "EPHEMERIS_TYPE": 0, "CLASSIFICATION_TYPE": "U", "NORAD_CAT_ID": 30021, "ELEMENT_SET_NO": 999, "REV_AT_EPOCH": 96836, "BSTAR": 0.00022952431, "MEAN_MOTION_DOT": 3.34e-06, "MEAN_MOTION_DDOT": 0}, "tle": {"line1": "1 30021U 99025MW  25339.93096885  .00000334  00000+0  22952-3 0  9993", "line2": "2 30021  98.8347 331.6370 0072124 306.3784  85.2749 14.04885473968368"}}, "geometry": {"type": "Point", "coordinates": [139.35454860169705, -54.802408508779195]}}, {"type": "Feature", "properties": {"norad_id": 30022, "name": "FENGYUN 1C DEB", "group": "fengyun-1c-debris", "lat": 78.68479757052052, "lon": 135.32494614075202, "alt_km": 851.043376137668, "timestamp": "2025-12-06T09:34:17.186995+00:00", "meta": {"OBJECT_NAME": "FENGYUN 1C DEB", "OBJECT_ID": "1999-025MX", "EPOCH": "2025-12-05T13:11:05.084160", "MEAN_MOTION": 14.23128432, "ECCENTRICITY": 0.00666417, "INCLINATION": 99.0727, "RA_OF_ASC_NODE": 187.4423, "ARG_OF_PERICENTER": 290.0186, "MEAN_ANOMALY": 123.3941, "EPHEMERIS_TYPE": 0, "CLASSIFICATION_TYPE": "U", "NORAD_CAT_ID": 30022, "ELEMENT_SET_NO": 999, "REV_AT_EPOCH": 98090, "BSTAR": 0.0001403567, "MEAN_MOTION_DOT": 2.76e-06, "MEAN_MOTION_DDOT": 0}, "tle": {"line1": "1 30022U 99025MX  25339.54936440  .00000276  00000+0  14036-3 0  9990", "line2": "2 30022  99.0727 187.4423 0066641 290.0186 123.3941 14.23128432980900"}}, "geometry": {"type": "Point", "coordinates": [135.32494614075202, 78.68479757052052]}}, {"type": "Feature", "properties": {"norad_id": 30023, "name": "FENGYUN 1C DEB", "group": "fengyun-1c-debris", "lat": -80.6962494052435, "lon": -94.64340629889453, "alt_km": 894.0949708419621, "timestamp": "2025-12-06T09:34:17.187005+00:00", "meta": {"OBJECT_NAME": "FENGYUN 1C DEB", "OBJECT_ID": "1999-025MY", "EPOCH": "2025-12-05T12:08:36.410208", "MEAN_MOTION": 14.11846763, "ECCENTRICITY": 0.00471947, "INCLINATION": 99.2943, "RA_OF_ASC_NODE": 172.8068, "ARG_OF_PERICENTER": 83.4983, "MEAN_ANOMALY": 330.8533, "EPHEMERIS_TYPE": 0, "CLASSIFICATION_TYPE": "U", "NORAD_CAT_ID": 30023, "ELEMENT_SET_NO": 999, "REV_AT_EPOCH": 97094, "BSTAR": 0.00065623266, "MEAN_MOTION_DOT": 1.163e-05, "MEAN_MOTION_DDOT": 0}, "tle": {"line1": "1 30023U 99025MY  25339.50597697  .00001163  00000+0  65623-3 0  9998", "line2": "2 30023  99.2943 172.8068 0047194  83.4983 330.8533 14.11846763970943"}}, "geometry": {"type": "Point", "coordinates": [-94.64340629889453, -80.6962494052435]}}, {"type": "Feature", "properties": {"norad_id": 30028, "name": "FENGYUN 1C DEB", "group": "fengyun-1c-debris", "lat": -80.87036895801204, "lon": 35.79030593535961, "alt_km": 603.8609310456459, "timestamp": "2025-12-06T09:34:17.187015+00:00", "meta": {"OBJECT_NAME": "FENGYUN 1C DEB", "OBJECT_ID": "1999-025ND", "EPOCH": "2025-12-05T22:32:44.176416", "MEAN_MOTION": 14.55443751, "ECCENTRICITY": 0.01741685, "INCLINATION": 98.1445, "RA_OF_ASC_NODE": 332.3271, "ARG_OF_PERICENTER": 249.614, "MEAN_ANOMALY": 137.9604, "EPHEMERIS_TYPE": 0, "CLASSIFICATION_TYPE": "U", "NORAD_CAT_ID": 30028, "ELEMENT_SET_NO": 999, "REV_AT_EPOCH": 99623, "BSTAR": 0.00077657411, "MEAN_MOTION_DOT": 4.089e-05, "MEAN_MOTION_DDOT": 0}, "tle": {"line1": "1 30028U 99025ND  25339.93940019  .00004089  00000+0  77657-3 0  9990", "line2": "2 30028  98.1445 332.3271 0174168 249.6140 137.9604 14.55443751996238"}}, "geometry": {"type": "Point", "coordinates": [35.79030593535961, -80.87036895801204]}}]}